STARLINK-34321          
1 64267U 25120M   26068.45592938  .00014394  00000+0  49717-3 0  9993
2 64267  53.1592 117.5427 0001172  90.9956 269.1179 15.30199823 43887
KUIPER-00208            
1 67775U 26030M   26068.67231509  .00043852  00000+0  13883-2 0  9994
2 67775  51.8846 219.6993 0015525  57.3146 302.9333 15.32208734  5080
